AIST-2D (RS-48)         
1 41465U 16026B   23101.60663024  .00025762  00000+0  39308-3 0  9996
2 41465  97.0075 334.2048 0009448 116.4090 273.9321 15.54380870389615
NUSAT-1 (FRESCO)        
1 41557U 16033B   23101.53176318  .00057349  00000+0  96617-3 0  9995
2 41557  97.3837 207.1936 0006129  26.2390 104.1257 15.51490874383265
NUSAT-2 (BATATA)        
1 41558U 16033C   23101.51880472  .00064563  00000+0  99412-3 0  9999
2 41558  97.4107 214.7128 0005692   9.6220 119.1883 15.53972471383581
CARTOSAT-2C             
1 41599U 16040A   23101.65626551  .00006805  00000+0  32419-3 0  9992
2 41599  97.4432 162.9068 0014301 215.7466 295.4598 15.19361838377207
SATHYABAMASAT           
1 41600U 16040B   23101.20857661  .00100084  00000+0  12789-2 0  9995
2 41600  97.1682 154.1295 0008036 136.7852 223.4037 15.58876168378747
LAPAN-A3                
1 41603U 16040E   23101.56395132  .00003097  00000+0  13809-3 0  9998
2 41603  97.1732 130.1996 0012569 183.6531 325.9065 15.22050578377354
BIROS                   
1 41604U 16040F   23101.53254198  .00009656  00000+0  35262-3 0  9996
2 41604  97.1711 139.6371 0011795 149.3290 210.8642 15.28247729377911
SWAYAM                  
1 41607U 16040J   23101.13717680  .00074889  00000+0  11672-2 0  9993
2 41607  97.1635 151.3306 0008788 129.4659 230.7374 15.53570178378553
BEESAT-4                
1 41619U 16040W   23101.12716430  .00066489  00000+0  11868-2 0  9991
2 41619  97.1681 150.6160 0007863 128.4622 231.7337 15.49802316366452
3CAT-2                  
1 41732U 16051B   23101.37149782  .00044325  00000+0  86104-3 0  9997
2 41732  97.3909  31.4530 0006461 317.4554 162.3692 15.47482144371121
PRATHAM                 
1 41783U 16059A   23101.51657627  .00001000  00000+0  19897-3 0  9997
2 41783  97.8767 135.5783 0031949 313.3077  46.5463 14.63829685349221
ALSAT 1N                
1 41789U 16059G   23101.50252438  .00001287  00000+0  24623-3 0  9993
2 41789  97.8767 140.8148 0026435 293.7323  66.1110 14.65264291349506
LISHUI 1-01             
1 41845U 16066E   23101.50911649  .01456823  00000+0  15314-1 0  9996
2 41845  98.7303 272.3373 0051419 187.1020 247.0362 15.59617474341427
CARTOSAT-2D             
1 41948U 17008A   23101.59403098  .00007184  00000+0  34358-3 0  9992
2 41948  97.4213 162.0411 0004761  11.4532 348.6812 15.19282795341068
NAYIF-1 (EO-88)         
1 42017U 17008BX  23101.18305772  .00094313  00000+0  11792-2 0  9991
2 42017  97.2190 170.5427 0004072 225.5815 134.5109 15.59501725342968
ZHUHAI-1 02 (CAS-4B)    
1 42759U 17034B   23101.57574979  .00009617  00000+0  50037-3 0  9992
2 42759  43.0154 125.6516 0010056  23.9442 122.2675 15.16148395321529
ZHUHAI-1 01 (CAS-4A)    
1 42761U 17034D   23101.52467801  .00009566  00000+0  49701-3 0  9994
2 42761  43.0153 124.4849 0010878  26.0503 104.9001 15.16197640321528
UCLSAT                  
1 42765U 17036A   23101.10155132  .00051558  00000+0  11069-2 0  9998
2 42765  97.1518 140.8008 0005008 346.3986  13.7127 15.44526559323500
NIUSAT                  
1 42766U 17036B   23101.03653803  .00028192  00000+0  80938-3 0  9999
2 42766  97.1654 134.0013 0009780 356.1249   3.9918 15.35765252322294
CARTOSAT-2E             
1 42767U 17036C   23101.50061050  .00007398  00000+0  35390-3 0  9996
2 42767  97.4115 162.3843 0007242  64.3230  49.2921 15.19251863321616
AALTO-1                 
1 42775U 17036L   23101.09178582  .00021545  00000+0  67670-3 0  9994
2 42775  97.1607 133.1631 0009758 358.4018   1.7192 15.32974614322237
URSA MAIOR              
1 42776U 17036M   23101.03368335  .00024504  00000+0  73424-3 0  9998
2 42776  97.1617 134.2659 0009009 355.2708   4.8449 15.34453562322281
COMPASS 2               
1 42777U 17036N   23101.05468092  .00134551  00000+0  15990-2 0  9999
2 42777  97.1540 145.7842 0003163 277.2206  82.8692 15.60704717322971
MAX VALIER SAT          
1 42778U 17036P   23101.05802089  .00024849  00000+0  71679-3 0  9993
2 42778  97.1655 137.6005 0007463 357.7780   2.3430 15.35661738322411
PEGASUS                 
1 42784U 17036V   23101.09927999  .00042714  00000+0  10049-2 0  9996
2 42784  97.1567 139.5612 0005983 350.5849   9.5286 15.41832428322621
NUDTSAT                 
1 42787U 17036Y   23101.54611980  .00191344  00000+0  17618-2 0  9992
2 42787  97.1503 148.4045 0002633 254.0512 106.0459 15.67046535323065
SUCHAI                  
1 42788U 17036Z   23101.08380049  .00060950  00000+0  11546-2 0  9993
2 42788  97.1547 142.5255 0004028 337.1015  23.0056 15.48145453322881
SKCUBE                  
1 42789U 17036AA  23101.10086000  .00051719  00000+0  10966-2 0  9995
2 42789  97.1558 141.3751 0004833 343.3542  16.7548 15.44895366322730
VZLUSAT-1               
1 42790U 17036AB  23101.12251424  .00169660  00000+0  16759-2 0  9994
2 42790  97.1501 147.7588 0002590 262.3937  97.7029 15.65350791323133
ROBUSTA 1B              
1 42792U 17036AD  23101.05743435  .00055543  00000+0  10889-2 0  9998
2 42792  97.1538 142.3182 0003907 340.9457  19.1647 15.47176524322806
D-SAT                   
1 42794U 17036AF  23101.48912263  .00004314  00000+0  34793-3 0  9995
2 42794  97.4652  96.6932 0118410 165.1413 195.3338 14.94980902315964
NORSAT 2                
1 42828U 17042D   23101.47743688  .00005085  00000+0  46787-3 0  9994
2 42828  97.4006 305.9933 0014604  85.5223 274.7666 14.95087337312656
TECHNOSAT               
1 42829U 17042E   23101.52383976  .00003134  00000+0  30404-3 0  9993
2 42829  97.3948 302.9496 0015139  89.5187 270.7769 14.93245033312544
2017-042F               
1 42830U 17042F   23101.47065345  .00014882  00000+0  11809-2 0  9995
2 42830  97.4101 309.7550 0013428  67.4176 292.8468 15.00528099312867
FLYING LAPTOP           
1 42831U 17042G   23101.46927535  .00001875  00000+0  18580-3 0  9995
2 42831  97.3956 303.2290 0015126  89.7711 270.5238 14.92844943312535
CORVUS BC2              
1 42846U 17042X   23101.51089291  .00004134  00000+0  38909-3 0  9993
2 42846  97.3929 306.5886 0010627  79.9036 280.3384 14.94324485312762
CORVUS BC1              
1 42847U 17042Y   23101.50614581  .00003554  00000+0  33443-3 0  9992
2 42847  97.3925 306.9330 0010222  79.0335 281.2036 14.94419541312774
CZ-4C R/B               
1 43012U 17072C   23101.15387865  .00000735  00000+0  15865-3 0  9999
2 43012  98.6548 154.4585 0127655 126.2448 235.0626 14.56654190287199
RADFXSAT (FOX-1B)       
1 43017U 17073E   23101.16983570  .00008292  00000+0  59193-3 0  9999
2 43017  97.6386 348.1663 0234849 290.6004  67.0164 14.85163584291234
EAGLESAT 1              
1 43018U 17073F   23101.21377808  .00013089  00000+0  85967-3 0  9995
2 43018  97.6435 351.5359 0219158 279.6761  77.9765 14.90097123291310
INS-1C                  
1 43116U 18004F   23101.17206829  .00046957  00000+0  99363-3 0  9993
2 43116  97.3395 181.7139 0004520  14.5773 345.5605 15.44979695292001
FLOCK 3P'-3             
1 43119U 18004J   23101.20393982  .00081001  00000+0  14570-2 0  9992
2 43119  97.3279 178.6251 0002589  17.4094 342.7246 15.49552334291827
FLOCK 3P'-2             
1 43120U 18004K   23101.16784580  .00067003  00000+0  14441-2 0  9990
2 43120  97.3368 177.6399 0004007  39.2718 320.8820 15.44346183291746
FLOCK 3P'-4             
1 43122U 18004M   23101.16032860  .00053816  00000+0  12188-2 0  9992
2 43122  97.3393 177.8263 0004998  51.9283 308.2415 15.42926146291746
PICSAT                  
1 43132U 18004X   23101.18899403  .00062348  00000+0  11484-2 0  9997
2 43132  97.3346 182.9010 0003967   7.0591 353.0715 15.48946482292148
CNUSAIL-1               
1 43133U 18004Y   23101.15934442  .00028141  00000+0  72665-3 0  9990
2 43133  97.3307 178.4737 0006296  33.8918 326.2729 15.39085892291886
2018-004Z               
1 43134U 18004Z   23101.18922489  .00046522  00000+0  98560-3 0  9997
2 43134  97.3335 181.2045 0004589  25.2120 334.9352 15.44945750292046
FOX-1D (AO-92)          
1 43137U 18004AC  23101.17686719  .00034212  00000+0  82056-3 0  9998
2 43137  97.3318 179.8639 0005425  33.3719 326.7869 15.41300937291978
STEP CUBE LAB           
1 43138U 18004AD  23101.27342922  .00223944  00000+0  17143-2 0  9991
2 43138  97.3344 188.6814 0004063 277.5829  82.4972 15.71453499292508
XIAOXIANG-2             
1 43155U 18008A   23101.58315384  .00020286  00000+0  86307-3 0  9993
2 43155  97.3068 155.7925 0014319 177.6391 318.6869 15.22944980288507
ZHOU ENLAI              
1 43156U 18008B   23101.61560889  .00022390  00000+0  94439-3 0  9993
2 43156  97.3111 155.8528 0012060 176.7048 336.2438 15.23244884288434
QUANTUTONG 1            
1 43158U 18008D   23101.14870799  .00017283  00000+0  78517-3 0  9991
2 43158  97.3119 152.6199 0011587 182.4821 240.0467 15.20770096288226
S-NET D                 
1 43186U 18014G   23101.28556746  .00005503  00000+0  44710-3 0  9997
2 43186  97.6415   6.2988 0012992  33.7864 326.4184 14.99936902283523
S-NET B                 
1 43187U 18014H   23101.55313580  .00005875  00000+0  47701-3 0  9990
2 43187  97.6414   6.4975 0013046  32.2920 327.9100 14.99936895283568
S-NET A                 
1 43188U 18014J   23101.28652388  .00005491  00000+0  44620-3 0  9994
2 43188  97.6419   6.3183 0013047  33.1254 327.0784 14.99934891283524
S-NET C                 
1 43189U 18014K   23101.28812604  .00005462  00000+0  44389-3 0  9994
2 43189  97.6420   6.2221 0013164  31.6710 328.5303 14.99929488282077
SHAONIAN XING           
1 43199U 18015H   23101.57332064  .00107675  00000+0  13591-2 0  9994
2 43199  97.5407 256.3758 0005104  42.9958  21.3026 15.59196434289384
LUOJIA-1 01             
1 43485U 18048B   23101.46888246  .00002822  00000+0  39277-3 0  9992
2 43485  97.9068 182.7371 0009836 322.0946  37.9568 14.78558167261881
CZ-4B R/B               
1 43656U 18081B   23101.44699784  .00000221  00000+0  84485-4 0  9997
2 43656  99.4394 265.0922 0207640   8.8878 351.5889 14.30799944232969
